start=new Date('2022-07-15T00:00:00.000Z').valueOf();
sats=[{"RA_OF_ASC_NODE":"343.2305","ECCENTRICITY":"0.00119140","LAUNCH_DATE":"2022-07-07","TIME_SYSTEM":"UTC","BSTAR":"-0.00514550000000","MEAN_ANOMALY":"74.1111","DECAY_DATE":null,"FILE":"3513976","ARG_OF_PERICENTER":"52.1973","NORAD_CAT_ID":"53034","SITE":"AFETR","MEAN_ELEMENT_THEORY":"SGP4","PERIOD":"90.948","MEAN_MOTION_DDOT":"0.0000000000000","GP_ID":"208137939","RCS_SIZE":null,"COUNTRY_CODE":"US","OBJECT_NAME":"STARLINK-4151","PERIAPSIS":"313.086","INCLINATION":"53.2172","MEAN_MOTION_DOT":"-0.01023277","SEMIMAJOR_AXIS":"6699.203","APOAPSIS":"329.049","REV_AT_EPOCH":"130","MEAN_MOTION":"15.83317700","ELEMENT_SET_NO":"999","TLE_LINE2":"2 53034  53.2172 343.2305 0011914  52.1973  74.1111 15.83317700  1304","CLASSIFICATION_TYPE":"U","REF_FRAME":"TEME","OBJECT_TYPE":"PAYLOAD","TLE_LINE1":"1 53034U 22076BA  22195.91667824 -.01023277  00000-0 -51455-2 0  9990","EPHEMERIS_TYPE":"0","CENTER_NAME":"EARTH","EPOCH":"2022-07-14T22:00:00.999936","OBJECT_ID":"2022-076BA"},{"SEMIMAJOR_AXIS":"6699.078","PERIAPSIS":"312.728","OBJECT_NAME":"STARLINK-4157","INCLINATION":"53.2172","MEAN_MOTION_DOT":"-0.01023479","GP_ID":"208137472","COUNTRY_CODE":"US","RCS_SIZE":null,"MEAN_MOTION_DDOT":"0.0000000000000","EPOCH":"2022-07-14T22:00:00.999936","OBJECT_ID":"2022-076BB","REF_FRAME":"TEME","OBJECT_TYPE":"PAYLOAD","CENTER_NAME":"EARTH","TLE_LINE1":"1 53035U 22076BB  22195.91667824 -.01023479  00000-0 -51333-2 0  9990","EPHEMERIS_TYPE":"0","REV_AT_EPOCH":"130","MEAN_MOTION":"15.83361920","ELEMENT_SET_NO":"999","TLE_LINE2":"2 53035  53.2172 343.2290 0012263  53.0871  74.3005 15.83361920  1300","CLASSIFICATION_TYPE":"U","APOAPSIS":"329.158","BSTAR":"-0.00513330000000","LAUNCH_DATE":"2022-07-07","TIME_SYSTEM":"UTC","ECCENTRICITY":"0.00122630","RA_OF_ASC_NODE":"343.2290","SITE":"AFETR","NORAD_CAT_ID":"53035","MEAN_ELEMENT_THEORY":"SGP4","PERIOD":"90.946","ARG_OF_PERICENTER":"53.0871","FILE":"3513976","DECAY_DATE":null,"MEAN_ANOMALY":"74.3005"},{"PERIAPSIS":"312.680","OBJECT_NAME":"STARLINK-4155","INCLINATION":"53.2172","MEAN_MOTION_DOT":"-0.01023679","SEMIMAJOR_AXIS":"6699.031","MEAN_MOTION_DDOT":"0.0000000000000","GP_ID":"208138090","RCS_SIZE":null,"COUNTRY_CODE":"US","REF_FRAME":"TEME","OBJECT_TYPE":"PAYLOAD","TLE_LINE1":"1 53036U 22076BC  22195.91667824 -.01023679  00000-0 -51303-2 0  9990","CENTER_NAME":"EARTH","EPHEMERIS_TYPE":"0","EPOCH":"2022-07-14T22:00:00.999936","OBJECT_ID":"2022-076BC","APOAPSIS":"329.112","REV_AT_EPOCH":"130","MEAN_MOTION":"15.83378589","ELEMENT_SET_NO":"999","CLASSIFICATION_TYPE":"U","TLE_LINE2":"2 53036  53.2172 343.2276 0012265  52.3743  75.3431 15.83378589  1300","LAUNCH_DATE":"2022-07-07","TIME_SYSTEM":"UTC","BSTAR":"-0.00513030000000","ECCENTRICITY":"0.00122650","RA_OF_ASC_NODE":"343.2276","ARG_OF_PERICENTER":"52.3743","FILE":"3513976","MEAN_ELEMENT_THEORY":"SGP4","SITE":"AFETR","NORAD_CAT_ID":"53036","PERIOD":"90.945","MEAN_ANOMALY":"75.3431","DECAY_DATE":null},{"REV_AT_EPOCH":"130","MEAN_MOTION":"15.83393012","ELEMENT_SET_NO":"999","TLE_LINE2":"2 53037  53.2172 343.2276 0012420  52.9354  75.1454 15.83393012  1309","CLASSIFICATION_TYPE":"U","APOAPSIS":"329.176","EPOCH":"2022-07-14T22:00:00.999936","OBJECT_ID":"2022-076BD","REF_FRAME":"TEME","OBJECT_TYPE":"PAYLOAD","CENTER_NAME":"EARTH","TLE_LINE1":"1 53037U 22076BD  22195.91667824 -.01023723  00000-0 -51259-2 0  9991","EPHEMERIS_TYPE":"0","GP_ID":"208137734","RCS_SIZE":null,"COUNTRY_CODE":"US","MEAN_MOTION_DDOT":"0.0000000000000","SEMIMAJOR_AXIS":"6698.990","PERIAPSIS":"312.535","OBJECT_NAME":"STARLINK-4153","INCLINATION":"53.2172","MEAN_MOTION_DOT":"-0.01023723","DECAY_DATE":null,"MEAN_ANOMALY":"75.1454","NORAD_CAT_ID":"53037","SITE":"AFETR","MEAN_ELEMENT_THEORY":"SGP4","PERIOD":"90.944","ARG_OF_PERICENTER":"52.9354","FILE":"3513976","RA_OF_ASC_NODE":"343.2276","ECCENTRICITY":"0.00124200","BSTAR":"-0.00512590000000","LAUNCH_DATE":"2022-07-07","TIME_SYSTEM":"UTC"},{"RA_OF_ASC_NODE":"343.2263","ECCENTRICITY":"0.00119950","BSTAR":"-0.00512600000000","TIME_SYSTEM":"UTC","LAUNCH_DATE":"2022-07-07","DECAY_DATE":null,"MEAN_ANOMALY":"75.6796","PERIOD":"90.943","NORAD_CAT_ID":"53038","SITE":"AFETR","MEAN_ELEMENT_THEORY":"SGP4","FILE":"3513976","ARG_OF_PERICENTER":"52.7730","RCS_SIZE":null,"COUNTRY_CODE":"US","GP_ID":"208137577","MEAN_MOTION_DDOT":"0.0000000000000","SEMIMAJOR_AXIS":"6698.951","MEAN_MOTION_DOT":"-0.01023826","INCLINATION":"53.2172","PERIAPSIS":"312.780","OBJECT_NAME":"STARLINK-4156","CLASSIFICATION_TYPE":"U","TLE_LINE2":"2 53038  53.2172 343.2263 0011995  52.7730  75.6796 15.83407054  1304","MEAN_MOTION":"15.83407054","ELEMENT_SET_NO":"999","REV_AT_EPOCH":"130","APOAPSIS":"328.851","OBJECT_ID":"2022-076BE","EPOCH":"2022-07-14T22:00:00.999936","EPHEMERIS_TYPE":"0","TLE_LINE1":"1 53038U 22076BE  22195.91667824 -.01023826  00000-0 -51260-2 0  9998","CENTER_NAME":"EARTH","OBJECT_TYPE":"PAYLOAD","REF_FRAME":"TEME"}];
